COSMOS 2361 [-]         
1 25590U 98076A   22279.14030345  .00000082  00000+0  72975-4 0  9996
2 25590  82.9310 124.3575 0030241 260.6386 221.4484 13.73029159191729
COSMOS 2378 [-]         
1 26818U 01023A   22278.87120069  .00000037  00000+0  23563-4 0  9997
2 26818  82.9277 142.3975 0032201 205.7369 154.2183 13.73976306 69478
COSMOS 2389 [-]         
1 27436U 02026A   22278.90696388  .00000068  00000+0  54433-4 0  9998
2 27436  82.9468  88.2664 0047614  68.1933  41.2016 13.74983007 21545
COSMOS 2398 [-]         
1 27818U 03023A   22279.33585159  .00000074  00000+0  64581-4 0  9993
2 27818  82.9486  49.8953 0032547 103.0404 335.2726 13.72218353968596
COSMOS 2407 [+]         
1 28380U 04028A   22279.17099212  .00000075  00000+0  60390-4 0  9991
2 28380  82.9649 354.4615 0040576  68.5382 292.0099 13.76121794914380
COSMOS 2414 [+]         
1 28521U 05002A   22279.14676174  .00000097  00000+0  68316-4 0  9996
2 28521  82.9538 344.5523 0039212 217.1170 142.7283 13.87667344896905
COSMOS 2429 [-]         
1 32052U 07038A   22279.05677841  .00000085  00000+0  72339-4 0  9990
2 32052  82.9771 120.8367 0039444  46.7251 313.7185 13.74970560756204
COSMOS 2454 [-]         
1 35635U 09039A   22279.10526759  .00000071  00000+0  45226-4 0  9990
2 35635  82.9582 330.7257 0019590 157.7809 202.4210 13.89696000670068
COSMOS 2463 [+]         
1 36519U 10017A   22278.81739031  .00000047  00000+0  36138-4 0  9991
2 36519  82.9626 161.7612 0034924 277.3664 154.5583 13.71480971622822
